NORAD_CAT_ID,OBJECT_NAME,OBJECT_TYPE,EPOCH,MEAN_MOTION,ECCENTRICITY,INCLINATION,RA_OF_ASC_NODE,ARG_OF_PERICENTER,MEAN_ANOMALY,BSTAR,MEAN_MOTION_DOT,MEAN_MOTION_DDOT,TLE_LINE0,TLE_LINE1,TLE_LINE2,SEMIMAJOR_AXIS,PERIOD,APOGEE,PERIGEE,DECAYED
49749,STARLINK-3250,PAYLOAD,2023-10-05 23:15:28,15.08843864,0.0001218,53.2147,165.5157,92.921,267.1922,0.00032835,4.942e-05,0.0,0 STARLINK-3250,1 49749U 21115AB  23278.96907560  .00004942  00000-0  32835-3 0  9990,2 49749  53.2147 165.5157 0001218  92.9210 267.1922 15.08843864101819,6917.869,95.437,540.576,538.891,0.0
49749,STARLINK-3250,PAYLOAD,2023-10-06 21:30:52,15.08836522,0.000131,53.2148,161.3535,84.5573,275.5568,0.00037403,5.669e-05,0.0,0 STARLINK-3250,1 49749U 21115AB  23279.89644328  .00005669  00000-0  37403-3 0  9996,2 49749  53.2148 161.3535 0001310  84.5573 275.5568 15.08836522103067,6917.891,95.438,540.662,538.85,0.0
49749,STARLINK-3250,PAYLOAD,2023-10-06 23:06:15,15.08842113,0.000128,53.2153,161.0557,79.5069,280.6067,0.00047869,7.339e-05,0.0,0 STARLINK-3250,1 49749U 21115AB  23279.96268227  .00007339  00000-0  47869-3 0  9997,2 49749  53.2153 161.0557 0001280  79.5069 280.6067 15.08842113101965,6917.874,95.437,540.624,538.853,0.0
49749,STARLINK-3250,PAYLOAD,2023-10-07 22:57:02,15.08851525,0.000123,53.2153,156.595,85.5209,274.5923,0.00048906,7.506e-05,0.0,0 STARLINK-3250,1 49749U 21115AB  23280.95627964  .00007506  00000-0  48906-3 0  9994,2 49749  53.2153 156.5950 0001230  85.5209 274.5923 15.08851525102117,6917.845,95.437,540.561,538.859,0.0
49749,STARLINK-3250,PAYLOAD,2023-10-08 08:29:21,15.08855141,0.0001217,53.2153,154.811,81.0012,279.1118,0.00056815,8.769e-05,0.0,0 STARLINK-3250,1 49749U 21115AB  23281.35371789  .00008769  00000-0  56815-3 0  9990,2 49749  53.2153 154.8110 0001217  81.0012 279.1118 15.08855141102175,6917.834,95.437,540.541,538.857,0.0
49749,STARLINK-3250,PAYLOAD,2023-10-08 18:01:40,15.088416,0.0001472,53.2153,153.0271,84.5333,275.5827,-6.8089e-07,-2.99e-06,0.0,0 STARLINK-3250,1 49749U 21115AB  23281.75115976 -.00000299  00000-0 -68089-6 0  9999,2 49749  53.2153 153.0271 0001472  84.5333 275.5827 15.08841600103343,6917.875,95.437,540.759,538.722,0.0
49749,STARLINK-3250,PAYLOAD,2023-10-08 21:12:26,15.08847037,0.0001336,53.2149,152.4329,89.9765,270.138,0.000152,2.132e-05,0.0,0 STARLINK-3250,1 49749U 21115AB  23281.88363723  .00002132  00000-0  15200-3 0  9998,2 49749  53.2149 152.4329 0001336  89.9765 270.1380 15.08847037102256,6917.859,95.437,540.648,538.8,0.0
49749,STARLINK-3250,PAYLOAD,2023-10-09 01:58:35,15.08858943,0.0001363,53.2152,151.5403,89.193,270.9218,0.00048946,7.514e-05,0.0,0 STARLINK-3250,1 49749U 21115AB  23282.08235339  .00007514  00000-0  48946-3 0  9994,2 49749  53.2152 151.5403 0001363  89.1930 270.9218 15.08858943103391,6917.822,95.436,540.63,538.745,0.0
49749,STARLINK-3250,PAYLOAD,2024-08-18 20:31:27,15.08843454,0.0001579,53.2146,178.4703,93.9499,266.1674,7.6889e-05,9.36e-06,0.0,0 STARLINK-3250,1 49749U 21115AB  24231.85517739  .00000936  00000-0  76889-4 0  9990,2 49749  53.2146 178.4703 0001579  93.9499 266.1674 15.08843454150911,6917.87,95.437,540.827,538.642,0.0
49749,STARLINK-3250,PAYLOAD,2024-08-19 02:53:01,15.08800937,0.0001151,53.2168,177.2804,88.137,271.9754,-0.00048528,-7.994e-05,0.0,0 STARLINK-3250,1 49749U 21115AB  24232.12015940 -.00007994  00000-0 -48528-3 0  9999,2 49749  53.2168 177.2804 0001151  88.1370 271.9754 15.08800937150950,6918.0,95.44,540.661,539.069,0.0
49749,STARLINK-3250,PAYLOAD,2024-08-19 06:03:48,15.08791474,0.0001613,53.2163,176.691,58.2105,301.9044,-0.00055753,-9.138e-05,0.0,0 STARLINK-3250,1 49749U 21115AB  24232.25264993 -.00009138  00000-0 -55753-3 0  9997,2 49749  53.2163 176.6910 0001613  58.2105 301.9044 15.08791474150976,6918.029,95.441,541.01,538.778,0.0
49749,STARLINK-3250,PAYLOAD,2024-08-20 02:43:45,15.08893172,0.000142,53.2161,172.8225,68.3731,291.7412,0.00095813,0.00015016,0.0,0 STARLINK-3250,1 49749U 21115AB  24233.11372374  .00015016  00000-0  95813-3 0  9997,2 49749  53.2161 172.8225 0001420  68.3731 291.7412 15.08893172151103,6917.718,95.434,540.565,538.601,0.0
49749,STARLINK-3250,PAYLOAD,2024-08-21 02:34:34,15.08831616,0.0001119,53.2163,168.3651,70.0755,290.0358,0.00036811,5.574e-05,0.0,0 STARLINK-3250,1 49749U 21115AB  24234.10734794  .00005574  00000-0  36811-3 0  9996,2 49749  53.2163 168.3651 0001119  70.0755 290.0358 15.08831616151251,6917.906,95.438,540.545,538.997,0.0
49749,STARLINK-3250,PAYLOAD,2024-08-21 05:45:20,15.0883831,0.0001253,53.216,167.7703,45.1596,314.9498,0.0004045,6.155e-05,0.0,0 STARLINK-3250,1 49749U 21115AB  24234.23982555  .00006155  00000-0  40450-3 0  9990,2 49749  53.2160 167.7703 0001253  45.1596 314.9498 15.08838310150162,6917.886,95.438,540.617,538.884,0.0
